{"type": "FeatureCollection", "features": [ {"type": "Feature", "properties": {"norad_id": 57401, "name": "TIANMU-1 09", "group": "weather", "lat": 79.757129132041, "lon": -11.620549846572501, "alt_km": 469.71797678255825, "timestamp": "2025-12-10T04:57:29.249775+00:00", "meta": {"OBJECT_NAME": "TIANMU-1 09", "OBJECT_ID": "2023-101C", "EPOCH": "2025-12-09T20:44:20.858784", "MEAN_MOTION": 15.28017101, "ECCENTRICITY": 0.0006817, "INCLINATION": 97.2822, "RA_OF_ASC_NODE": 33.0906, "ARG_OF_PERICENTER": 91.5267, "MEAN_ANOMALY": 268.6753, "EPHEMERIS_TYPE": 0, "CLASSIFICATION_TYPE": "U", "NORAD_CAT_ID": 57401, "ELEMENT_SET_NO": 999, "REV_AT_EPOCH": 13271, "BSTAR": 0.0004251, "MEAN_MOTION_DOT": 0.00011559, "MEAN_MOTION_DDOT": 0}, "tle": {"line1": "1 57401U 23101C   25343.86413031  .00011559  00000+0  42510-3 0  9992", "line2": "2 57401  97.2822  33.0906 0006817  91.5267 268.6753 15.28017101132719"}}, "geometry": {"type": "Point", "coordinates": [-11.620549846572501, 79.757129132041]}}, {"type": "Feature", "properties": {"norad_id": 57402, "name": "TIANMU-1 10", "group": "weather", "lat": -73.24286601994022, "lon": -170.88902097291654, "alt_km": 494.7403632448768, "timestamp": "2025-12-10T04:57:29.249786+00:00", "meta": {"OBJECT_NAME": "TIANMU-1 10", "OBJECT_ID": "2023-101D", "EPOCH": "2025-12-09T19:59:17.623968", "MEAN_MOTION": 15.28006823, "ECCENTRICITY": 0.0008569, "INCLINATION": 97.2902, "RA_OF_ASC_NODE": 33.9067, "ARG_OF_PERICENTER": 91.7649, "MEAN_ANOMALY": 268.4572, "EPHEMERIS_TYPE": 0, "CLASSIFICATION_TYPE": "U", "NORAD_CAT_ID": 57402, "ELEMENT_SET_NO": 999, "REV_AT_EPOCH": 13270, "BSTAR": 0.00043272, "MEAN_MOTION_DOT": 0.00011769, "MEAN_MOTION_DDOT": 0}, "tle": {"line1": "1 57402U 23101D   25343.83284287  .00011769  00000+0  43272-3 0  9998", "line2": "2 57402  97.2902  33.9067 0008569  91.7649 268.4572 15.28006823132703"}}, "geometry": {"type": "Point", "coordinates": [-170.88902097291654, -73.24286601994022]}}, {"type": "Feature", "properties": {"norad_id": 57490, "name": "FENGYUN 3F", "group": "weather", "lat": 57.92499541855092, "lon": 38.38390105398597, "alt_km": 819.7195776676863, "timestamp": "2025-12-10T04:57:29.249798+00:00", "meta": {"OBJECT_NAME": "FENGYUN 3F", "OBJECT_ID": "2023-111A", "EPOCH": "2025-12-09T20:13:30.392832", "MEAN_MOTION": 14.19892553, "ECCENTRICITY": 6.54e-05, "INCLINATION": 98.7087, "RA_OF_ASC_NODE": 52.1828, "ARG_OF_PERICENTER": 96.3722, "MEAN_ANOMALY": 263.7529, "EPHEMERIS_TYPE": 0, "CLASSIFICATION_TYPE": "U", "NORAD_CAT_ID": 57490, "ELEMENT_SET_NO": 999, "REV_AT_EPOCH": 12199, "BSTAR": 0.00010378, "MEAN_MOTION_DOT": 1.77e-06, "MEAN_MOTION_DDOT": 0}, "tle": {"line1": "1 57490U 23111A   25343.84271288  .00000177  00000+0  10378-3 0  9996", "line2": "2 57490  98.7087  52.1828 0000654  96.3722 263.7529 14.19892553121999"}}, "geometry": {"type": "Point", "coordinates": [38.38390105398597, 57.92499541855092]}}, {"type": "Feature", "properties": {"norad_id": 58584, "name": "ARKTIKA-M 2", "group": "weather", "lat": 49.89994415576649, "lon": -41.693342389831166, "alt_km": 26768.578915739443, "timestamp": "2025-12-10T04:57:29.249810+00:00", "meta": {"OBJECT_NAME": "ARKTIKA-M 2", "OBJECT_ID": "2023-198A", "EPOCH": "2025-12-08T20:10:13.977120", "MEAN_MOTION": 2.0060476, "ECCENTRICITY": 0.68646991, "INCLINATION": 63.2247, "RA_OF_ASC_NODE": 175.3152, "ARG_OF_PERICENTER": 268.1185, "MEAN_ANOMALY": 18.8267, "EPHEMERIS_TYPE": 0, "CLASSIFICATION_TYPE": "U", "NORAD_CAT_ID": 58584, "ELEMENT_SET_NO": 999, "REV_AT_EPOCH": 1450, "BSTAR": 0, "MEAN_MOTION_DOT": 1.66e-06, "MEAN_MOTION_DDOT": 0}, "tle": {"line1": "1 58584U 23198A   25342.84043955  .00000166  00000+0  00000+0 0  9998", "line2": "2 58584  63.2247 175.3152 6864699 268.1185  18.8267  2.00604760 14506"}}, "geometry": {"type": "Point", "coordinates": [-41.693342389831166, 49.89994415576649]}}, {"type": "Feature", "properties": {"norad_id": 58645, "name": "TIANMU-1 11", "group": "weather", "lat": 72.78368231050597, "lon": -151.46819978985067, "alt_km": 489.7280820758733, "timestamp": "2025-12-10T04:57:29.249826+00:00", "meta": {"OBJECT_NAME": "TIANMU-1 11", "OBJECT_ID": "2023-205A", "EPOCH": "2025-12-09T20:37:13.609056", "MEAN_MOTION": 15.24544377, "ECCENTRICITY": 0.0008148, "INCLINATION": 97.3609, "RA_OF_ASC_NODE": 3.5328, "ARG_OF_PERICENTER": 322.2029, "MEAN_ANOMALY": 37.8635, "EPHEMERIS_TYPE": 0, "CLASSIFICATION_TYPE": "U", "NORAD_CAT_ID": 58645, "ELEMENT_SET_NO": 999, "REV_AT_EPOCH": 10865, "BSTAR": 0.00040058, "MEAN_MOTION_DOT": 9.803e-05, "MEAN_MOTION_DDOT": 0}, "tle": {"line1": "1 58645U 23205A   25343.85918529  .00009803  00000+0  40058-3 0  9993", "line2": "2 58645  97.3609   3.5328 0008148 322.2029  37.8635 15.24544377108650"}}, "geometry": {"type": "Point", "coordinates": [-151.46819978985067, 72.78368231050597]}}, {"type": "Feature", "properties": {"norad_id": 58646, "name": "TIANMU-1 12", "group": "weather", "lat": -40.86098842773475, "lon": 10.100012223596513, "alt_km": 495.1150178180087, "timestamp": "2025-12-10T04:57:29.249836+00:00", "meta": {"OBJECT_NAME": "TIANMU-1 12", "OBJECT_ID": "2023-205B", "EPOCH": "2025-12-09T21:15:42.555744", "MEAN_MOTION": 15.24425295, "ECCENTRICITY": 0.0006046, "INCLINATION": 97.3597, "RA_OF_ASC_NODE": 3.3655, "ARG_OF_PERICENTER": 304.2794, "MEAN_ANOMALY": 55.7871, "EPHEMERIS_TYPE": 0, "CLASSIFICATION_TYPE": "U", "NORAD_CAT_ID": 58646, "ELEMENT_SET_NO": 999, "REV_AT_EPOCH": 10864, "BSTAR": 0.00041839, "MEAN_MOTION_DOT": 0.00010202, "MEAN_MOTION_DDOT": 0}, "tle": {"line1": "1 58646U 23205B   25343.88590921  .00010202  00000+0  41839-3 0  9992", "line2": "2 58646  97.3597   3.3655 0006046 304.2794  55.7871 15.24425295108649"}}, "geometry": {"type": "Point", "coordinates": [10.100012223596513, -40.86098842773475]}}, {"type": "Feature", "properties": {"norad_id": 58647, "name": "TIANMU-1 13", "group": "weather", "lat": 45.06767806521478, "lon": -168.67281126436055, "alt_km": 491.9599560455845, "timestamp": "2025-12-10T04:57:29.249888+00:00", "meta": {"OBJECT_NAME": "TIANMU-1 13", "OBJECT_ID": "2023-205C", "EPOCH": "2025-12-09T20:29:36.802752", "MEAN_MOTION": 15.24468145, "ECCENTRICITY": 0.0006048, "INCLINATION": 97.3624, "RA_OF_ASC_NODE": 3.5338, "ARG_OF_PERICENTER": 280.519, "MEAN_ANOMALY": 79.5366, "EPHEMERIS_TYPE": 0, "CLASSIFICATION_TYPE": "U", "NORAD_CAT_ID": 58647, "ELEMENT_SET_NO": 999, "REV_AT_EPOCH": 10863, "BSTAR": 0.00040835, "MEAN_MOTION_DOT": 9.968e-05, "MEAN_MOTION_DDOT": 0}, "tle": {"line1": "1 58647U 23205C   25343.85389818  .00009968  00000+0  40835-3 0  9993", "line2": "2 58647  97.3624   3.5338 0006048 280.5190  79.5366 15.24468145108632"}}, "geometry": {"type": "Point", "coordinates": [-168.67281126436055, 45.06767806521478]}}, {"type": "Feature", "properties": {"norad_id": 58648, "name": "TIANMU-1 14", "group": "weather", "lat": -45.150200523894796, "lon": 175.77000583782626, "alt_km": 496.7544868969662, "timestamp": "2025-12-10T04:57:29.249900+00:00", "meta": {"OBJECT_NAME": "TIANMU-1 14", "OBJECT_ID": "2023-205D", "EPOCH": "2025-12-09T20:05:39.727104", "MEAN_MOTION": 15.24451232, "ECCENTRICITY": 0.0006905, "INCLINATION": 97.3556, "RA_OF_ASC_NODE": 2.8689, "ARG_OF_PERICENTER": 285.7521, "MEAN_ANOMALY": 74.2955, "EPHEMERIS_TYPE": 0, "CLASSIFICATION_TYPE": "U", "NORAD_CAT_ID": 58648, "ELEMENT_SET_NO": 999, "REV_AT_EPOCH": 10863, "BSTAR": 0.00039513, "MEAN_MOTION_DOT": 9.639e-05, "MEAN_MOTION_DDOT": 0}, "tle": {"line1": "1 58648U 23205D   25343.83726536  .00009639  00000+0  39513-3 0  9990", "line2": "2 58648  97.3556   2.8689 0006905 285.7521  74.2955 15.24451232108630"}}, "geometry": {"type": "Point", "coordinates": [175.77000583782626, -45.150200523894796]}}, {"type": "Feature", "properties": {"norad_id": 58660, "name": "TIANMU-1 19", "group": "weather", "lat": 82.55403943026818, "lon": 3.9491438960489362, "alt_km": 477.7736729588787, "timestamp": "2025-12-10T04:57:29.249910+00:00", "meta": {"OBJECT_NAME": "TIANMU-1 19", "OBJECT_ID": "2023-208A", "EPOCH": "2025-12-09T17:33:40.404960", "MEAN_MOTION": 15.27761661, "ECCENTRICITY": 0.0004063, "INCLINATION": 97.4389, "RA_OF_ASC_NODE": 94.775, "ARG_OF_PERICENTER": 266.5058, "MEAN_ANOMALY": 93.5716, "EPHEMERIS_TYPE": 0, "CLASSIFICATION_TYPE": "U", "NORAD_CAT_ID": 58660, "ELEMENT_SET_NO": 999, "REV_AT_EPOCH": 10836, "BSTAR": 0.00051751, "MEAN_MOTION_DOT": 0.00013974, "MEAN_MOTION_DDOT": 0}, "tle": {"line1": "1 58660U 23208A   25343.73171765  .00013974  00000+0  51751-3 0  9999", "line2": "2 58660  97.4389  94.7750 0004063 266.5058  93.5716 15.27761661108365"}}, "geometry": {"type": "Point", "coordinates": [3.9491438960489362, 82.55403943026818]}}, {"type": "Feature", "properties": {"norad_id": 58661, "name": "TIANMU-1 20", "group": "weather", "lat": 26.14520153916832, "lon": -80.63179657682475, "alt_km": 480.4570815591651, "timestamp": "2025-12-10T04:57:29.249921+00:00", "meta": {"OBJECT_NAME": "TIANMU-1 20", "OBJECT_ID": "2023-208B", "EPOCH": "2025-12-09T20:26:05.292096", "MEAN_MOTION": 15.28957488, "ECCENTRICITY": 0.0006309, "INCLINATION": 97.4327, "RA_OF_ASC_NODE": 95.3393, "ARG_OF_PERICENTER": 278.1223, "MEAN_ANOMALY": 81.9301, "EPHEMERIS_TYPE": 0, "CLASSIFICATION_TYPE": "U", "NORAD_CAT_ID": 58661, "ELEMENT_SET_NO": 999, "REV_AT_EPOCH": 10845, "BSTAR": 0.00052034, "MEAN_MOTION_DOT": 0.0001458, "MEAN_MOTION_DDOT": 0}, "tle": {"line1": "1 58661U 23208B   25343.85145014  .00014580  00000+0  52034-3 0  9990", "line2": "2 58661  97.4327  95.3393 0006309 278.1223  81.9301 15.28957488108452"}}, "geometry": {"type": "Point", "coordinates": [-80.63179657682475, 26.14520153916832]}}]}